NORAD_CAT_ID,OBJECT_NAME,OBJECT_TYPE,EPOCH,MEAN_MOTION,ECCENTRICITY,INCLINATION,RA_OF_ASC_NODE,ARG_OF_PERICENTER,MEAN_ANOMALY,BSTAR,MEAN_MOTION_DOT,MEAN_MOTION_DDOT,TLE_LINE0,TLE_LINE1,TLE_LINE2,SEMIMAJOR_AXIS,PERIOD,APOGEE,PERIGEE,DECAYED
52275.0,STARLINK-3784,PAYLOAD,2022-10-25 00:21:01,15.08813651,0.0002163,53.2182,238.3278,44.6545,315.4621,-0.00016639,-2.934e-05,0.0,0 STARLINK-3784,1 52275U 22041Q   22298.01460324 -.00002934  00000-0 -16639-3 0  9991,2 52275  53.2182 238.3278 0002163  44.6545 315.4621 15.08813651 29637,6917.9609999999975,95.439,541.322,538.33,0.0
52275.0,STARLINK-3784,PAYLOAD,2022-10-25 05:07:10,15.08819891,0.0002079,53.2188,237.4361,46.2941,313.8223,-0.00015474,-2.749e-05,0.0,0 STARLINK-3784,1 52275U 22041Q   22298.21332173 -.00002749  00000-0 -15474-3 0  9993,2 52275  53.2188 237.4361 0002079  46.2941 313.8223 15.08819891 29665,6917.941999999999,95.439,541.245,538.369,0.0
52275.0,STARLINK-3784,PAYLOAD,2022-10-25 13:04:06,15.08825332,0.0002268,53.2185,235.9493,36.7372,323.3776,4.3934e-06,-2.18e-06,0.0,0 STARLINK-3784,1 52275U 22041Q   22298.54451723 -.00000218  00000-0  43934-5 0  9994,2 52275  53.2185 235.9493 0002268  36.7372 323.3776 15.08825332 28501,6917.925,95.438,541.359,538.221,0.0
52275.0,STARLINK-3784,PAYLOAD,2022-10-26 03:22:34,15.08841667,0.0002254,53.2186,233.273,39.8177,320.298,-1.0969e-05,-4.63e-06,0.0,0 STARLINK-3784,1 52275U 22041Q   22299.14067137 -.00000463  00000-0 -10969-4 0  9997,2 52275  53.2186 233.2730 0002254  39.8177 320.2980 15.08841667 29805,6917.875,95.437,541.3,538.181,0.0
52275.0,STARLINK-3784,PAYLOAD,2022-10-26 12:54:52,15.08848388,0.0002259,53.2187,231.489,39.4563,320.6593,9.0382e-05,1.151e-05,0.0,0 STARLINK-3784,1 52275U 22041Q   22299.53810502  .00001151  00000-0  90382-4 0  9992,2 52275  53.2187 231.4890 0002259  39.4563 320.6593 15.08848388 28656,6917.855,95.437,541.2819999999998,538.1569999999998,0.0
52275.0,STARLINK-3784,PAYLOAD,2022-10-27 01:37:58,15.08837361,0.0002166999999999,53.2187,229.1103,34.3377,325.7755,0.00023327,3.426e-05,0.0,0 STARLINK-3784,1 52275U 22041Q   22300.06803522  .00003426  00000-0  23327-3 0  9998,2 52275  53.2187 229.1103 0002167  34.3377 325.7755 15.08837361 29940,6917.888000000001,95.438,541.253,538.254,0.0
52275.0,STARLINK-3784,PAYLOAD,2022-10-27 04:48:44,15.08840247,0.0002183,53.2188,228.5154,35.0394,325.0741,0.00025988,3.85e-05,0.0,0 STARLINK-3784,1 52275U 22041Q   22300.20051417  .00003850  00000-0  25988-3 0  9998,2 52275  53.2188 228.5154 0002183  35.0394 325.0741 15.08840247 28758,6917.88,95.438,541.255,538.234,0.0
52275.0,STARLINK-3784,PAYLOAD,2022-10-28 04:39:30,15.08855723,0.0002217,53.2183,224.0548,36.3352,323.779,0.00018423,2.646e-05,0.0,0 STARLINK-3784,1 52275U 22041Q   22301.19410485  .00002646  00000-0  18423-3 0  9999,2 52275  53.2183 224.0548 0002217  36.3352 323.7790 15.08855723 28908,6917.831999999999,95.437,541.231,538.164,0.0
52275.0,STARLINK-3784,PAYLOAD,2022-10-29 04:30:17,15.08852458,0.0002290999999999,53.2181,219.5949,36.0777,324.0370000000001,8.980799999999999e-05,1.142e-05,0.0,0 STARLINK-3784,1 52275U 22041Q   22302.18769922  .00001142  00000-0  89808-4 0  9998,2 52275  53.2181 219.5949 0002291  36.0777 324.0370 15.08852458 29057,6917.842,95.437,541.2919999999998,538.122,0.0
52275.0,STARLINK-3784,PAYLOAD,2022-10-30 10:42:37,15.08828394,0.0002073999999999,53.219,213.9448,38.7299,321.3842,0.00010678,1.411e-05,0.0,0 STARLINK-3784,1 52275U 22041Q   22303.44626807  .00001411  00000-0  10678-3 0  9999,2 52275  53.2190 213.9448 0002074  38.7299 321.3842 15.08828394 29243,6917.916,95.438,541.216,538.346,0.0
52275.0,STARLINK-3784,PAYLOAD,2022-10-30 21:50:19,15.08831963,0.0002207,53.2186,211.8629,34.214,325.8994,1.5727e-05,-3.8e-07,0.0,0 STARLINK-3784,1 52275U 22041Q   22303.90994649 -.00000038  00000-0  15727-4 0  9998,2 52275  53.2186 211.8629 0002207  34.2140 325.8994 15.08831963 29311,6917.905,95.438,541.297,538.243,0.0
52275.0,STARLINK-3784,PAYLOAD,2022-10-31 10:33:24,15.08840965,0.0002301,53.2188,209.4847,35.8635,324.2512,4.2089e-05,3.82e-06,0.0,0 STARLINK-3784,1 52275U 22041Q   22304.43986185  .00000382  00000-0  42089-4 0  9995,2 52275  53.2188 209.4847 0002301  35.8635 324.2512 15.08840965 30604,6917.877,95.437,541.3340000000002,538.151,0.0
52275.0,STARLINK-3784,PAYLOAD,2022-11-01 04:02:39,15.08834245,0.0002239,53.2189,206.2139,36.8474,323.2672,2.2583e-05,7.1e-07,0.0,0 STARLINK-3784,1 52275U 22041Q   22305.16851152  .00000071  00000-0  22583-4 0  9993,2 52275  53.2189 206.2139 0002239  36.8474 323.2672 15.08834245 30718,6917.898,95.438,541.312,538.214,0.0
52275.0,STARLINK-3784,PAYLOAD,2022-11-02 02:18:02,15.08838743,0.000234,53.2187,202.0509,38.4564,321.6595,0.00020634,2.997e-05,0.0,0 STARLINK-3784,1 52275U 22041Q   22306.09586785  .00002997  00000-0  20634-3 0  9996,2 52275  53.2187 202.0509 0002340  38.4564 321.6595 15.08838743 30850,6917.884,95.438,541.368,538.13,0.0
52275.0,STARLINK-3784,PAYLOAD,2022-11-02 10:14:59,15.08832423,0.0002531,53.2189,200.5643,38.4763,321.6409,3.9979e-05,3.48e-06,0.0,0 STARLINK-3784,1 52275U 22041Q   22306.42707813  .00000348  00000-0  39979-4 0  9991,2 52275  53.2189 200.5643 0002531  38.4763 321.6409 15.08832423 29690,6917.904,95.438,541.519,538.018,0.0
52275.0,STARLINK-3784,PAYLOAD,2022-11-03 02:08:51,15.08825686,0.0002497,53.2187,197.5896,35.8492,324.2667,-6.2177e-05,-1.277e-05,0.0,0 STARLINK-3784,1 52275U 22041Q   22307.08948970 -.00001277  00000-0 -62177-4 0  9995,2 52275  53.2187 197.5896 0002497  35.8492 324.2667 15.08825686 31000,6917.924,95.438,541.5169999999998,538.062,0.0
52275.0,STARLINK-3784,PAYLOAD,2022-11-03 10:05:46,15.08836661,0.000229,53.2185,196.1042,39.4964,320.6194,8.277600000000001e-05,1.029e-05,0.0,0 STARLINK-3784,1 52275U 22041Q   22307.42068255  .00001029  00000-0  82776-4 0  9992,2 52275  53.2185 196.1042 0002290  39.4964 320.6194 15.08836661 31056,6917.891,95.438,541.34,538.1709999999998,0.0
52275.0,STARLINK-3784,PAYLOAD,2022-11-03 19:38:04,15.08853702,0.0002332,53.218,194.3181,35.0456,325.0689,0.00014194,1.972e-05,0.0,0 STARLINK-3784,1 52275U 22041Q   22307.81811020  .00001972  00000-0  14194-3 0  9996,2 52275  53.2180 194.3181 0002332  35.0456 325.0689 15.08853702 29904,6917.839,95.437,541.317,538.09,0.0
52275.0,STARLINK-3784,PAYLOAD,2022-11-04 01:59:36,15.08868152,0.0002393,53.2174,193.1309,38.1511,321.965,0.00050245,7.724e-05,0.0,0 STARLINK-3784,1 52275U 22041Q   22308.08306648  .00007724  00000-0  50245-3 0  9999,2 52275  53.2174 193.1309 0002393  38.1511 321.9650 15.08868152 31157,6917.794,95.436,541.315,538.004,0.0
52275.0,STARLINK-3784,PAYLOAD,2022-11-04 09:56:32,15.08876947,0.0002297,53.2174,191.6437,39.8246,320.2914,0.00081578,0.00012732,0.0,0 STARLINK-3784,1 52275U 22041Q   22308.41426338  .00012732  00000-0  81578-3 0  9993,2 52275  53.2174 191.6437 0002297  39.8246 320.2914 15.08876947 29993,6917.767,95.435,541.221,538.043,0.0
52275.0,STARLINK-3784,PAYLOAD,2022-11-04 19:28:51,15.08859818,0.0001305,53.2187,189.8522,37.1936,322.9147,0.00017489,2.498e-05,0.0,0 STARLINK-3784,1 52275U 22041Q   22308.81170429  .00002498  00000-0  17489-3 0  9992,2 52275  53.2187 189.8522 0001305  37.1936 322.9147 15.08859818 31265,6917.82,95.436,540.5880000000002,538.7819999999998,0.0
52275.0,STARLINK-3784,PAYLOAD,2022-11-05 03:25:47,15.08851257,0.0002369,53.2176,188.3736,31.7807,328.3327,0.0013255,0.00020877,0.0,0 STARLINK-3784,1 52275U 22041Q   22309.14290516  .00020877  00000-0  13255-2 0  9996,2 52275  53.2176 188.3736 0002369  31.7807 328.3327 15.08851257 30103,6917.846,95.437,541.35,538.072,0.0
52275.0,STARLINK-3784,PAYLOAD,2022-11-05 19:19:39,15.08811529,0.0002778,53.2175,185.4001,14.4226,345.6845,0.00083658,0.00013041,0.0,0 STARLINK-3784,1 52275U 22041Q   22309.80532371  .00013041  00000-0  83658-3 0  9997,2 52275  53.2175 185.4001 0002778  14.4226 345.6845 15.08811529 31412,6917.967,95.439,541.754,537.911,0.0
52275.0,STARLINK-3784,PAYLOAD,2022-11-06 01:41:12,15.08841118,0.0002147,53.2176,184.2107,31.2934,328.8185,0.0012673,0.00019939,0.0,0 STARLINK-3784,1 52275U 22041Q   22310.07028880  .00019939  00000-0  12673-2 0  9993,2 52275  53.2176 184.2107 0002147  31.2934 328.8185 15.08841118 31451,6917.877,95.437,541.227,538.257,0.0
52275.0,STARLINK-3784,PAYLOAD,2022-11-06 19:10:27,15.0884889,0.0002395,53.2175,180.9398,33.6613,326.4531,0.0009234,0.00014442,0.0,0 STARLINK-3784,1 52275U 22041Q   22310.79892606  .00014442  00000-0  92340-3 0  9991,2 52275  53.2175 180.9398 0002395  33.6613 326.4531 15.08848890 31565,6917.853,95.437,541.375,538.061,0.0
52275.0,STARLINK-3784,PAYLOAD,2022-11-06 23:56:36,15.08838393,0.0002336,53.2177,180.048,33.7169,326.3971,0.00037854,5.741e-05,0.0,0 STARLINK-3784,1 52275U 22041Q   22310.99764641  .00005741  00000-0  37854-3 0  9991,2 52275  53.2177 180.0480 0002336  33.7169 326.3971 15.08838393 31599,6917.885,95.438,541.366,538.134,0.0
52275.0,STARLINK-3784,PAYLOAD,2022-11-07 14:15:05,15.08843715,0.0002404,53.2174,177.3716,36.1564,323.9591,0.00046772,7.164e-05,0.0,0 STARLINK-3784,1 52275U 22041Q   22311.59380869  .00007164  00000-0  46772-3 0  9994,2 52275  53.2174 177.3716 0002404  36.1564 323.9591 15.08843715 30470,6917.869000000002,95.437,541.3969999999998,538.071,0.0
52275.0,STARLINK-3784,PAYLOAD,2022-11-08 01:22:47,15.08836346,0.0002447,53.2172,175.2881,33.217,326.8976,0.0003191,4.793e-05,0.0,0 STARLINK-3784,1 52275U 22041Q   22312.05749240  .00004793  00000-0  31910-3 0  9991,2 52275  53.2172 175.2881 0002447  33.2170 326.8976 15.08836346 31759,6917.892,95.438,541.4490000000002,538.064,0.0
52275.0,STARLINK-3784,PAYLOAD,2022-11-08 15:41:15,15.08856207,0.0002604,53.217,172.6098,31.3512,328.7635,0.00060491,9.356e-05,0.0,0 STARLINK-3784,1 52275U 22041Q   22312.65364643  .00009356  00000-0  60491-3 0  9993,2 52275  53.2170 172.6098 0002604  31.3512 328.7635 15.08856207 31843,6917.831,95.437,541.497,537.894,0.0
